0 SL-8 R/B
1 04784U 70102B   13281.49127356 -.00000071  00000-0 -49500-4 0  3429
2 04784 074.0312 067.9980 0026424 015.2490 049.6986 13.76484136151855
0 SL-8 R/B
1 04784U 70102B   13282.50795170 -.00000079  00000-0 -57186-4 0  3435
2 04784 074.0313 066.3065 0026448 013.2657 047.7558 13.76484010151992
0 SL-8 R/B
1 04784U 70102B   13283.59661863 -.00000057  00000-0 -35113-4 0  3449
2 04784 074.0315 064.4952 0026511 011.3777 042.3124 13.76484151152145
0 SL-8 R/B
1 04784U 70102B   13285.86114359 -.00000062  00000-0 -40170-4 0  3461
2 04784 074.0320 060.7288 0026511 007.0778 103.8459 13.76484296152453
0 SL-8 R/B
1 04784U 70102B   13286.95706579 -.00000029  00000-0 -68793-5 0  3479
2 04784 074.0319 058.9041 0026631 005.0418 134.4914 13.76484000152605
0 SL-8 R/B
1 04784U 70102B   13287.97447176 -.00000035  00000-0 -12708-4 0  3489
2 04784 074.0321 057.2114 0026666 003.0210 136.1925 13.76483812152743
0 SL-8 R/B
1 04784U 70102B   13289.48243407 -.00000023  00000-0 -90871-6 0  3495
2 04784 074.0327 054.7039 0026642 000.0930 048.7513 13.76483967152952
0 SL-8 R/B
1 04784U 70102B   13290.72845750  .00000009  00000-0  32223-4 0  3502
2 04784 074.0328 052.6310 0026686 357.7631 103.2096 13.76483977153124
0 SL-8 R/B
1 04784U 70102B   13291.82175334  .00000017  00000-0  40366-4 0  3515
2 04784 074.0328 050.8121 0026724 355.7443 120.8256 13.76484054153272
0 SL-8 R/B
1 04784U 70102B   13292.83928749  .00000028  00000-0  51111-4 0  3526
2 04784 074.0328 049.1194 0026753 353.8927 122.9923 13.76484105153418
0 SL-8 R/B
1 04784U 70102B   13293.93394459  .00000012  00000-0  35760-4 0  3539
2 04784 074.0328 047.2983 0026772 351.9321 147.2929 13.76484333153566
0 SL-8 R/B
1 04784U 70102B   13295.44534751  .00000012  00000-0  34901-4 0  3545
2 04784 074.0330 044.7838 0026802 349.1219 076.7784 13.76484576153776
